OBJECT_NAME,OBJECT_ID,EPOCH,MEAN_MOTION,ECCENTRICITY,INCLINATION,RA_OF_ASC_NODE,ARG_OF_PERICENTER,MEAN_ANOMALY,EPHEMERIS_TYPE,CLASSIFICATION_TYPE,NORAD_CAT_ID,ELEMENT_SET_NO,REV_AT_EPOCH,BSTAR,MEAN_MOTION_DOT,MEAN_MOTION_DDOT
NORBI,2020-068J,2026-07-11T18:28:34.766112,15.49514284,.00080026,97.8620,210.9198,154.2011,205.9639,0,U,46494,999,32001,.27304923E-3,.14965E-3,0
SALSAT,2020-068K,2026-07-11T12:58:29.571456,15.30139435,.00088233,97.8855,197.0941,206.5203,153.5586,0,U,46495,999,31908,.15528118E-3,.4447E-4,0
ICEYE-X6,2020-068M,2026-07-11T19:09:08.002656,15.04654251,.00075199,98.0982,187.6485,19.8480,340.3036,0,U,46497,999,31693,.15737044E-3,.2145E-4,0
NETSAT-4,2020-068U,2026-07-11T11:43:39.316800,15.44673317,.00043435,97.8607,202.6960,207.7284,152.3732,0,U,46504,999,31952,.23469153E-3,.10849E-3,0
NETSAT-3,2020-068V,2026-07-11T13:52:28.906176,15.43525225,.00033769,97.8654,200.9796,227.4367,132.6595,0,U,46505,999,31944,.25063843E-3,.11149E-3,0
NETSAT-1,2020-068W,2026-07-11T13:58:32.694240,15.35191564,.00024394,97.8751,195.0226,285.6031,74.4941,0,U,46506,999,31904,.21210218E-3,.7156E-4,0
NETSAT-2,2020-068X,2026-07-11T13:23:26.495520,15.47054012,.00016992,97.8614,202.7589,226.9444,133.1663,0,U,46507,999,31950,.28289943E-3,.14215E-3,0
TIANQI-6,2020-076D,2026-07-11T13:54:57.108960,15.07340968,.00099177,34.9986,258.7429,21.1913,338.9206,0,U,46810,999,31226,.12112991E-3,.184E-4,0
KSM1-C,2020-081B,2026-07-11T16:20:26.253888,15.27145110,.00015312,36.8957,267.6828,50.0773,310.0111,0,U,46906,999,31291,.18899185E-3,.5053E-4,0
KSM1-D,2020-081C,2026-07-11T15:36:01.911168,15.25073280,.00024266,36.8970,277.3591,102.0702,258.0319,0,U,46907,999,31283,.18947473E-3,.4754E-4,0
KSM1-A,2020-081H,2026-07-11T15:09:11.945664,15.26342655,.00026228,36.8966,270.5687,173.7422,186.3361,0,U,46912,999,31291,.19274274E-3,.503E-4,0
R2,2020-081J,2026-07-11T06:27:08.808480,15.25786273,.00072764,36.8983,272.9162,132.8084,227.3277,0,U,46913,999,31566,.17703452E-3,.4535E-4,0
KSM1-B,2020-081K,2026-07-11T15:45:57.511296,15.24856888,.00042997,36.9021,277.9814,130.4730,229.6394,0,U,46914,999,31592,.18186166E-3,.4529E-4,0
GONETS-M 20,2020-091A,2026-07-11T17:14:42.382176,12.42894193,.00221055,82.5050,287.1878,126.1895,234.1233,0,U,47227,999,25412,-.30841276E-3,-.33E-6,0
GONETS-M 21,2020-091B,2026-07-11T18:33:09.643392,12.42887365,.00157921,82.4973,285.8460,138.9629,221.2642,0,U,47228,999,25412,-.20079629E-3,-.18E-6,0
GONETS-M 22,2020-091C,2026-07-11T17:54:16.051968,12.42893604,.00229648,82.5031,286.7729,121.5629,238.7697,0,U,47229,999,25407,.11409775E-3,.26E-6,0
CUBEL,2021-006AM,2026-07-11T08:56:58.384608,15.41950819,.00080599,97.2314,242.7377,93.2723,266.9446,0,U,47448,999,30348,.13369915E-3,.561E-4,0
ARKTIKA-M 1,2021-016A,2026-07-07T10:17:34.884672,2.00614486,.72950864,63.2524,54.6812,270.0380,14.5466,0,U,47719,999,3919,0,-.257E-5,0
STARLINK-2342,2021-021Z,2026-07-11T18:00:02.000160,15.91424687,.00074861,53.1515,24.0803,273.9719,51.8072,0,U,47883,999,571,.62158068E-3,.20222E-2,.26242952E-4
GRUS-1B,2021-022C,2026-07-11T19:29:45.547872,14.98768108,.00144775,97.5345,75.1899,230.7478,129.2461,0,U,47934,999,28958,.58481057E-4,.648E-5,0
2021-022F,2021-022F,2026-07-11T18:56:27.027744,15.33437291,.00098568,97.3870,93.4684,17.5069,342.6511,0,U,47937,999,29348,.16055392E-3,.5115E-4,0
UNISAT-7,2021-022P,2026-07-11T16:59:39.602400,15.41134457,.00082967,97.3868,97.8965,1.0701,359.0562,0,U,47945,999,29363,.20840518E-3,.8555E-4,0
2021-022X,2021-022X,2026-07-11T01:05:43.595808,15.80386534,.00023281,97.3876,110.6875,101.0828,259.0701,0,U,47953,999,29426,.59811783E-3,.113695E-2,0
GLOBAL-9,2021-023G,2026-07-10T22:49:12.745344,15.47492996,.00029017,44.9804,116.8685,138.8106,221.3003,0,U,47971,999,29862,.2771497E-3,.14217E-3,0
AII-BRAVO,2021-034C,2026-07-11T02:42:04.845312,15.03645131,.00060061,97.5593,246.4781,173.9942,186.1357,0,U,48270,999,28321,.18828957E-3,.2518E-4,0
TYVAK-182A,2021-034D,2026-07-11T15:27:09.338112,15.06385470,.00047554,97.5716,251.1373,237.3451,122.7318,0,U,48271,999,28351,.23142941E-3,.3347E-4,0
CSS (TIANHE),2021-035A,2026-07-11T15:00:35.317728,15.58019839,.00025345,41.4689,173.4699,289.9919,70.0645,0,U,48274,999,29698,.21991574E-4,.1368E-4,0
TYVAK-0130,2021-041BF,2026-07-11T06:00:36.513504,15.27900210,.00085947,52.9938,274.3077,243.7866,116.2248,0,U,48606,999,28406,.17054732E-3,.436E-4,0
HAIYANG-2D,2021-043A,2026-07-11T19:12:38.308896,13.83372737,.00115957,65.9981,243.4219,265.9416,94.0327,0,U,48621,999,25995,-.10930276E-3,-.202E-5,0
2021-050D,2021-050D,2026-07-11T18:28:09.291936,15.23571893,.00060122,97.3333,268.2480,162.2637,197.8811,0,U,48843,999,28270,.12518785E-3,.2925E-4,0
TYVAK-0173,2021-059P,2026-07-11T15:22:53.021280,14.81964985,.00074826,96.0076,262.9191,314.7092,45.3516,0,U,48892,999,27186,.1132323E-3,.866E-5,0
MANDRAKE 2 ABLE,2021-059AE,2026-07-11T11:47:20.112000,15.55966110,.00035855,97.7028,24.1464,249.8894,110.1974,0,U,48907,999,28090,.19929112E-3,.1374E-3,0
MANDRAKE 2 BAKER,2021-059AF,2026-07-11T13:00:12.515328,15.60831279,.00024441,97.6994,27.2476,235.4838,124.6188,0,U,48908,999,28109,.20676976E-3,.17132E-3,0
PACE-1,2021-059AG,2026-07-10T23:59:24.733248,15.84551910,.00032347,97.6745,32.9101,192.6042,167.5147,0,U,48909,999,28156,.36329564E-3,.83467E-3,0
YAM-3,2021-059AN,2026-07-11T17:55:54.535008,15.49095714,.00038061,97.6993,21.3174,260.0528,100.0293,0,U,48915,999,28079,.13971667E-3,.7484E-4,0
FARADAY_PHOENIX,2021-059AX,2026-07-11T12:06:27.060768,15.86709129,.00089179,97.6804,33.3762,209.2139,150.8634,0,U,48924,999,28150,.13991669E-2,.369409E-2,0
DEMO8 (TENZING),2021-059CA,2026-07-11T11:51:56.420928,15.55927061,.00055191,97.7020,27.7809,247.6795,112.3874,0,U,48951,999,28108,.18551767E-3,.12767E-3,0
FENGYUN 3E,2021-062A,2026-07-11T19:04:16.751712,14.19905018,.00024262,98.7501,195.9281,45.4532,314.6843,0,U,49008,999,26007,-.85936456E-4,-.226E-5,0
ISS (NAUKA),2021-066A,2026-07-11T07:33:23.712192,15.48978902,.00066885,51.6302,180.6822,282.4935,77.5305,0,U,49044,999,61024,.10843416E-3,.5525E-4,0
STARLINK-3100,2021-082Q,2026-07-11T17:47:42.525888,14.98332500,.00034587,69.9998,341.6670,274.6616,85.4148,0,U,49144,999,26456,.3641978E-5,-.5E-6,0
CUTE,2021-088D,2026-07-11T18:36:44.130528,16.11033303,.00059305,97.3993,294.6780,312.2336,47.8444,0,U,49263,999,26648,.11216803E-2,.1101885E-1,.762027E-3
2021-091B,2021-091B,2026-07-11T18:27:49.828608,15.18673143,.00122933,97.4481,19.9720,321.4719,38.5636,0,U,49316,999,26271,.10122544E-3,.2033E-4,0
SDGSAT 1,2021-100A,2026-07-11T19:10:35.531904,15.19227969,.00093763,97.2624,238.8072,174.7590,185.3745,0,U,49387,999,25965,.93248531E-4,.19E-4,0
TEIKYOSAT-4 (OORURI),2021-102B,2026-07-11T15:31:25.501152,15.09590713,.00113984,97.3665,221.1793,201.2231,158.8527,0,U,49396,999,25641,.63567447E-4,.961E-5,0
Z-SAT,2021-102E,2026-07-11T18:42:55.351584,15.18443281,.0017233,97.3320,227.3568,155.9123,204.2921,0,U,49399,999,25717,.83737495E-4,.1664E-4,0
HIBARI,2021-102F,2026-07-11T15:08:10.361472,15.32229413,.00133116,97.3230,238.2605,112.2322,248.0333,0,U,49400,999,25793,.22315199E-3,.6885E-4,0
KOSEN-1,2021-102H,2026-07-11T15:35:45.769920,15.27181096,.00152786,97.3173,234.3348,118.6044,241.6734,0,U,49402,999,25775,.17803257E-3,.4686E-4,0
GLOBAL-14,2021-106A,2026-07-11T05:32:55.871808,15.51690431,.00170844,42.0023,148.0639,197.5247,162.5010,0,U,49469,999,26186,.27424978E-3,.16564E-3,0
GAOFEN-3 02,2021-109A,2026-07-11T17:56:17.747232,14.42219322,.00013662,98.4095,200.4950,288.0713,72.0328,0,U,49495,999,24385,-.31215959E-4,-.146E-5,0
GLOBAL-12,2021-115BA,2026-07-10T14:34:24.220992,15.55134134,.00026761,53.1957,291.8070,67.4277,292.7018,0,U,49772,999,25954,.40417221E-3,.27333E-3,0
GLOBAL-13,2021-115BB,2026-07-11T14:41:58.831008,15.47016684,.00009942,53.1984,298.3929,153.6296,206.4764,0,U,49773,999,25954,.23738952E-3,.1177E-3,0
GLOBAL-17,2021-120A,2026-07-11T15:45:33.180192,15.53591747,.00134576,41.9946,263.3432,63.2968,296.9254,0,U,49949,999,25870,.27788626E-3,.17962E-3,0
GLOBAL-16,2021-120B,2026-07-11T15:21:02.577888,15.51370265,.00117129,41.9948,267.6481,52.1360,308.0542,0,U,49950,999,25864,.25460087E-3,.15125E-3,0
XW-3 (CAS-9),2021-131B,2026-07-11T18:25:24.388896,14.41380720,.00048198,98.4983,285.0250,39.4262,320.7277,0,U,50466,999,23865,.1487137E-3,.438E-5,0
ION SCV-004,2022-002K,2026-07-11T16:27:36.870624,15.30686634,.00055609,97.2825,249.8855,263.3420,96.7189,0,U,50993,999,24904,.10806312E-3,.3131E-4,0
ETV-A1,2022-002CE,2026-07-11T18:07:27.258240,15.41186157,.00036373,97.2873,258.9958,242.0728,118.0151,0,U,51060,999,24962,.16443107E-3,.6737E-4,0
BRO-5,2022-002CF,2026-07-11T17:59:12.829920,15.48742659,.0005001,97.2993,266.6571,216.6723,143.4186,0,U,51061,999,25005,.35826313E-3,.19148E-3,0
LUDI TANCE 1-01A (L-SAR 01A),2022-007A,2026-07-11T18:52:06.967200,14.88416897,.00016045,97.8110,199.8568,90.9245,269.2155,0,U,51284,999,24213,.3907985E-4,.308E-5,0
LUDI TANCE 1-01B (L-SAR 01B),2022-018A,2026-07-11T18:03:42.219936,14.88411520,.00016356,97.8109,199.8216,91.4774,268.6631,0,U,51822,999,23736,.41668716E-4,.332E-5,0
2022-019D,2022-019D,2026-07-11T19:18:52.521984,15.75226072,.00010069,97.3661,286.7082,50.7784,309.3570,0,U,51827,999,24357,.41995047E-3,.6307E-3,0
2022-019J,2022-019J,2026-07-11T16:30:43.638912,15.20546340,.00098353,97.3424,254.8653,135.6871,224.5153,0,U,51832,999,24152,.93651911E-4,.1984E-4,0
2022-023F,2022-023F,2026-07-11T18:48:02.863008,15.17934451,.01327881,63.4438,189.8673,341.6307,18.0032,0,U,51951,999,24144,.21246927E-3,.52E-4,0
CZ-4C R/B,2022-027B,2026-07-11T18:27:21.928320,13.65481928,.02346094,63.3947,353.4798,22.5670,338.5482,0,U,52085,999,21539,.14713903E-4,-.81E-6,0
MERIDIAN 10,2022-030A,2026-07-10T21:30:52.934400,2.00610044,.67906115,62.6794,138.2343,272.8428,17.6143,0,U,52145,999,3150,0,.17E-5,0
OMNI-L1,2022-033A,2026-07-11T17:48:41.535360,14.82837559,.00050296,97.8392,271.4431,188.6766,171.4362,0,U,52157,999,23109,.13482513E-3,.1039E-4,0
